$$SOE
2461295.500000000, A.D. 2026-Sep-12 00:00:00.0000, -2.338997025903194E+07, -4.418475783596707E+08, 5.719635181272648E+07,
2461302.500000000, A.D. 2026-Sep-19 00:00:00.0000, -1.352673444528321E+07, -4.436884388699408E+08, 5.765078572796357E+07,
2461309.500000000, A.D. 2026-Sep-26 00:00:00.0000, -3.656151848547192E+06, -4.452891760028539E+08, 5.807401513911535E+07,
2461316.500000000, A.D. 2026-Oct-03 00:00:00.0000, 6.216414720151098E+06, -4.466512563098899E+08, 5.846611500929251E+07,
2461323.500000000, A.D. 2026-Oct-10 00:00:00.0000, 1.608570424737154E+07, -4.477762235772207E+08, 5.882717253418842E+07,
2461330.500000000, A.D. 2026-Oct-17 00:00:00.0000, 2.594655589720506E+07, -4.486656947162948E+08, 5.915728658607286E+07,
2461337.500000000, A.D. 2026-Oct-24 00:00:00.0000, 3.579390731516777E+07, -4.493213559601877E+08, 5.945656717600086E+07,
2461344.500000000, A.D. 2026-Oct-31 00:00:00.0000, 4.562279296562677E+07, -4.497449594258627E+08, 5.972513491923368E+07,
2461351.500000000, A.D. 2026-Nov-07 00:00:00.0000, 5.542834285137445E+07, -4.499383199620942E+08, 5.996312047852367E+07,
2461358.500000000, A.D. 2026-Nov-14 00:00:00.0000, 6.520578182459439E+07, -4.499033113894027E+08, 6.017066403905956E+07,
2461365.500000000, A.D. 2026-Nov-21 00:00:00.0000, 7.495042768483151E+07, -4.496418614432340E+08, 6.034791503646117E+07,
2461372.500000000, A.D. 2026-Nov-28 00:00:00.0000, 8.465768707293375E+07, -4.491559484205702E+08, 6.049503198271219E+07,
2461379.500000000, A.D. 2026-Dec-05 00:00:00.0000, 9.432305278785197E+07, -4.484476001791050E+08, 6.061218200374205E+07,
2461386.500000000, A.D. 2026-Dec-12 00:00:00.0000, 1.039421026979030E+08, -4.475188923723459E+08, 6.069954032755235E+07,
2461393.500000000, A.D. 2026-Dec-19 00:00:00.0000, 1.135104983647255E+08, -4.463719459086403E+08, 6.075728989629692E+07,
2461400.500000000, A.D. 2026-Dec-26 00:00:00.0000, 1.230239832423284E+08, -4.450089244962211E+08, 6.078562104403697E+07,
2461407.500000000, A.D. 2027-Jan-02 00:00:00.0000, 1.324783807311783E+08, -4.434320324592924E+08, 6.078473119876105E+07,
2461414.500000000, A.D. 2027-Jan-09 00:00:00.0000, 1.418695922075699E+08, -4.416435127991631E+08, 6.075482459897056E+07,
2461421.500000000, A.D. 2027-Jan-16 00:00:00.0000, 1.511935950661926E+08, -4.396456454857758E+08, 6.069611202156088E+07,
2461428.500000000, A.D. 2027-Jan-23 00:00:00.0000, 1.604464408241132E+08, -4.374407460135964E+08, 6.060881051276837E+07,
2461435.500000000, A.D. 2027-Jan-30 00:00:00.0000, 1.696242534759409E+08, -4.350311642646248E+08, 6.049314310045174E+07,
2461442.500000000, A.D. 2027-Feb-06 00:00:00.0000, 1.787232285265093E+08, -4.324192833342898E+08, 6.034933847612463E+07,
2461449.500000000, A.D. 2027-Feb-13 00:00:00.0000, 1.877396322416409E+08, -4.296075170967302E+08, 6.017763078821899E+07,
2461456.500000000, A.D. 2027-Feb-20 00:00:00.0000, 1.966697987533734E+08, -4.265983072959915E+08, 5.997825969798563E+07,
2461463.500000000, A.D. 2027-Feb-27 00:00:00.0000, 2.055101264162673E+08, -4.233941233713011E+08, 5.975147030627619E+07,
2461470.500000000, A.D. 2027-Mar-06 00:00:00.0000, 2.142570764348102E+08, -4.199974630891340E+08, 5.949751283071092E+07,
2461477.500000000, A.D. 2027-Mar-13 00:00:00.0000, 2.229071721637091E+08, -4.164108519293392E+08, 5.921664234710266E+07,
2461484.500000000, A.D. 2027-Mar-20 00:00:00.0000, 2.314569979530591E+08, -4.126368420569053E+08, 5.890911863013941E+07,
2461491.500000000, A.D. 2027-Mar-27 00:00:00.0000, 2.399031977413340E+08, -4.086780114251226E+08, 5.857520602948707E+07,
2461498.500000000, A.D. 2027-Apr-03 00:00:00.0000, 2.482424735995006E+08, -4.045369630545923E+08, 5.821517335826948E+07,
2461505.500000000, A.D. 2027-Apr-10 00:00:00.0000, 2.564715842873088E+08, -4.002163244613361E+08, 5.782929378946547E+07,
2461512.500000000, A.D. 2027-Apr-17 00:00:00.0000, 2.645873438434305E+08, -3.957187472438460E+08, 5.741784475603655E+07,
2461519.500000000, A.D. 2027-Apr-24 00:00:00.0000, 2.725866202889572E+08, -3.910469068861641E+08, 5.698110784136905E+07,
2461526.500000000, A.D. 2027-May-01 00:00:00.0000, 2.804663347456208E+08, -3.862035027446404E+08, 5.651936863414247E+07,
2461533.500000000, A.D. 2027-May-08 00:00:00.0000, 2.882234612788152E+08, -3.811912574673118E+08, 5.603291658061244E+07,
2461540.500000000, A.D. 2027-May-15 00:00:00.0000, 2.958550259706391E+08, -3.760129148916195E+08, 5.552204504991826E+07,
2461547.500000000, A.D. 2027-May-22 00:00:00.0000, 3.033581036595045E+08, -3.706712390110108E+08, 5.498705154412287E+07,
2461554.500000000, A.D. 2027-May-29 00:00:00.0000, 3.107298157020492E+08, -3.651690154763023E+08, 5.442823762488112E+07,
2461561.500000000, A.D. 2027-Jun-05 00:00:00.0000, 3.179673296427300E+08, -3.595090524978724E+08, 5.384590873136497E+07,
2461568.500000000, A.D. 2027-Jun-12 00:00:00.0000, 3.250678587840938E+08, -3.536941807152346E+08, 5.324037410882975E+07,
2461575.500000000, A.D. 2027-Jun-19 00:00:00.0000, 3.320286613269290E+08, -3.477272529671627E+08, 5.261194680166373E+07,
2461582.500000000, A.D. 2027-Jun-26 00:00:00.0000, 3.388470393599731E+08, -3.416111442216769E+08, 5.196094366382024E+07,
2461589.500000000, A.D. 2027-Jul-03 00:00:00.0000, 3.455203378316596E+08, -3.353487516557264E+08, 5.128768537514229E+07,
2461596.500000000, A.D. 2027-Jul-10 00:00:00.0000, 3.520459435410330E+08, -3.289429948741764E+08, 5.059249646089512E+07,
2461603.500000000, A.D. 2027-Jul-17 00:00:00.0000, 3.584212841842226E+08, -3.223968163053104E+08, 4.987570530792624E+07,
2461610.500000000, A.D. 2027-Jul-24 00:00:00.0000, 3.646438276128510E+08, -3.157131818337165E+08, 4.913764415781142E+07,
2461617.500000000, A.D. 2027-Jul-31 00:00:00.0000, 3.707110817162535E+08, -3.088950814330302E+08, 4.837864905843672E+07,
2461624.500000000, A.D. 2027-Aug-07 00:00:00.0000, 3.766205947279035E+08, -3.019455286456189E+08, 4.759905988675575E+07,
2461631.500000000, A.D. 2027-Aug-14 00:00:00.0000, 3.823699536555256E+08, -2.948675591622357E+08, 4.679922063322617E+07,
2461638.500000000, A.D. 2027-Aug-21 00:00:00.0000, 3.879567814522879E+08, -2.876642318645446E+08, 4.597947961587184E+07,
2461645.500000000, A.D. 2027-Aug-28 00:00:00.0000, 3.933787363596815E+08, -2.803386311246109E+08, 4.514018940700611E+07,
2461652.500000000, A.D. 2027-Sep-04 00:00:00.0000, 3.986335122420172E+08, -2.728938678569574E+08, 4.428170678516693E+07,
2461659.500000000, A.D. 2027-Sep-11 00:00:00.0000, 4.037188385187363E+08, -2.653330799832854E+08, 4.340439278605211E+07,
2461666.500000000, A.D. 2027-Sep-18 00:00:00.0000, 4.086324798291500E+08, -2.576594329590308E+08, 4.250861278692101E+07,
2461673.500000000, A.D. 2027-Sep-25 00:00:00.0000, 4.133722356598749E+08, -2.498761204384299E+08, 4.159473659692166E+07,
2461680.500000000, A.D. 2027-Oct-02 00:00:00.0000, 4.179359400113999E+08, -2.419863650496976E+08, 4.066313854849593E+07,
2461687.500000000, A.D. 2027-Oct-09 00:00:00.0000, 4.223214611274717E+08, -2.339934192840669E+08, 3.971419758717868E+07,
2461694.500000000, A.D. 2027-Oct-16 00:00:00.0000, 4.265267013513269E+08, -2.259005665527070E+08, 3.874829734915798E+07,
2461701.500000000, A.D. 2027-Oct-23 00:00:00.0000, 4.305495973692118E+08, -2.177111224157937E+08, 3.776582620183118E+07,
2461708.500000000, A.D. 2027-Oct-30 00:00:00.0000, 4.343881212170976E+08, -2.094284353714109E+08, 3.676717726255549E+07,
2461715.500000000, A.D. 2027-Nov-06 00:00:00.0000, 4.380402808898299E+08, -2.010558860748956E+08, 3.575274859461487E+07,
2461722.500000000, A.D. 2027-Nov-13 00:00:00.0000, 4.415041185697193E+08, -1.925968870650070E+08, 3.472294359296801E+07,
2461729.500000000, A.D. 2027-Nov-20 00:00:00.0000, 4.447777093770443E+08, -1.840548851822675E+08, 3.367817111468311E+07,
2461736.500000000, A.D. 2027-Nov-27 00:00:00.0000, 4.478591622608812E+08, -1.754333637133496E+08, 3.261884544770546E+07,
2461743.500000000, A.D. 2027-Dec-04 00:00:00.0000, 4.507466210086817E+08, -1.667358433465845E+08, 3.154538637826129E+07,
2461750.500000000, A.D. 2027-Dec-11 00:00:00.0000, 4.534382648256990E+08, -1.579658829021338E+08, 3.045821932860208E+07,
2461757.500000000, A.D. 2027-Dec-18 00:00:00.0000, 4.559323087601359E+08, -1.491270801752140E+08, 2.935777551197176E+07,
2461764.500000000, A.D. 2027-Dec-25 00:00:00.0000, 4.582270041265526E+08, -1.402230728930595E+08, 2.824449209038558E+07,
2461771.500000000, A.D. 2028-Jan-01 00:00:00.0000, 4.603206389699665E+08, -1.312575397687854E+08, 2.711881233237952E+07,
$$EOE